NUSAT-1 (FRESCO)        
1 41557U 16033B   22175.81808821  .00011696  00000+0  34753-3 0  9995
2 41557  97.3879 273.5266 0010247 359.5940 116.6262 15.34873050338517
BEESAT-4                
1 41619U 16040W   22175.36930845  .00011671  00000+0  38742-3 0  9999
2 41619  97.2166 225.8139 0011317  94.7693 265.4841 15.31315718321781
CAS-2T & KS-1Q          
1 41847U 16066G   22175.36789427  .00000818  00000+0  13252-3 0  9998
2 41847  98.5508 240.0326 0363693 189.0188 170.4348 14.38594765295345
NAYIF-1 (EO-88)         
1 42017U 17008BX  22175.47565638  .00011248  00000+0  33501-3 0  9991
2 42017  97.2688 241.4878 0004678 198.6066 161.5007 15.34846216298156
ZHUHAI-1 02 (CAS-4B)    
1 42759U 17034B   22175.78553861  .00004210  00000+0  25365-3 0  9992
2 42759  43.0180 292.2861 0010023 329.0979 161.0930 15.11973667277462
ZHUHAI-1 01 (CAS-4A)    
1 42761U 17034D   22175.82288345  .00003627  00000+0  21981-3 0  9993
2 42761  43.0179 290.8634 0010158 331.1136 170.1107 15.12058240277473
MAX VALIER SAT          
1 42778U 17036P   22175.59704199  .00005891  00000+0  22398-3 0  9995
2 42778  97.2049 216.4527 0008880 305.9020  54.1395 15.27117344277997
RADFXSAT (FOX-1B)       
1 43017U 17073E   22175.66680394  .00002264  00000+0  17356-3 0  9990
2 43017  97.6751  69.5662 0248907 163.8960 197.0352 14.81431193248184
FOX-1D (AO-92)          
1 43137U 18004AC  22175.48847473  .00006954  00000+0  24549-3 0  9993
2 43137  97.3688 250.5814 0006746 349.1710  10.9384 15.29524265247418
DIWATA-2B               
1 43678U 18084H   22175.82579270  .00000827  00000+0  86952-4 0  9996
2 43678  97.9716 309.1775 0008407 259.7659 100.2592 14.92185310198958
ES'HAIL 2               
1 43700U 18090A   22175.47025062  .00000148  00000+0  00000+0 0  9996
2 43700   0.0111  51.3258 0001072  64.7125 351.6321  1.00273177 13102
FOX-1CLIFF (AO-95)      
1 43770U 18099N   22175.41066625  .00002250  00000+0  20297-3 0  9996
2 43770  97.6213 241.5801 0012396 249.3158 110.6735 14.96473634194054
ITASAT 1                
1 43786U 18099AE  22175.73757895  .00002158  00000+0  19414-3 0  9990
2 43786  97.6235 242.8210 0013327 240.0089 119.9810 14.96612536194141
JY1SAT (JO-97)          
1 43803U 18099AX  22175.41874654  .00001820  00000+0  16242-3 0  9999
2 43803  97.6204 242.2677 0013066 240.6810 119.3107 14.97117665194110
UWE-4                   
1 43880U 18111E   22175.48028356  .00002382  00000+0  20553-3 0  9990
2 43880  97.6677  81.6680 0010054 300.9027  59.1207 14.98192503190755
NEXUS (FO-99)           
1 43937U 19003F   22175.35994794  .00010608  00000+0  35549-3 0  9999
2 43937  97.1299 208.4419 0022396 126.8647 233.4653 15.30847250191034
PSAT2 (NO-104)          
1 44354U 19036R   22175.20497630  .00070123 -48939-5  61700-3 0  9996
2 44354  28.5231 131.5263 0226980  46.7650 315.1664 15.40694359165722
JAISAT-1                
1 44419U 19038F   22175.42713018  .00005734  00000+0  28858-3 0  9998
2 44419  97.6352 145.6059 0021335 106.0097 254.3488 15.17420287164117
DUCHIFAT-3              
1 44854U 19089C   22175.82349443  .00003452  00000+0  27022-3 0  9995
2 44854  36.9662  56.6509 0009694 284.7215  75.2409 15.01129002139042
CAS-6 (TO-108)          
1 44881U 19093C   22175.73673300  .00000606  00000+0  83408-4 0  9991
2 44881  97.8924 254.8409 0015513 157.5612 202.6285 14.81737582135853
RS-44 & BREEZE-KM R/B   
1 44909U 19096E   22175.07070446  .00000018  00000+0  34392-4 0  9999
2 44909  82.5211 225.8794 0216360 304.4525  53.6298 12.79713557116351
ORBITAL FACTORY 2 (OF-2)
1 45113U 19071C   22175.86843073  .00018494  00000+0  38282-3 0  9999
2 45113  51.6392  22.8754 0009996 195.1966 164.8722 15.45773755134524
HUSKYSAT-1 (HO-107)     
1 45119U 19071J   22175.87869160  .00015375  00000+0  33045-3 0  9998
2 45119  51.6396  22.9177 0009766 191.2743 168.8026 15.44816117134518
BY70-2                  
1 45857U 20042B   22175.72881291  .00006969  00000+0  92846-3 0  9993
2 45857  97.9543 252.4986 0012456  96.1909 264.0698 14.79904508106533
SALSAT                  
1 46495U 20068K   22175.47897407  .00001040  00000+0  78565-4 0  9996
2 46495  97.7296 116.7815 0014723 252.5026 107.4591 15.04540150 95240
BY70-3                  
1 46839U 20079N   22175.77847649  .00022439  00000+0  52191-3 0  9997
2 46839  97.1978 247.7768 0003770 309.2746 169.5686 15.42317532 91376
RADFXSAT-2 (AO-109)     
1 47311U 21002C   22175.41677402  .00005951  00000+0  24370-3 0  9997
2 47311  60.6860 336.0325 0017408 341.6184  18.4273 15.25403678 79522
UVSQ-SAT                
1 47438U 21006AB  22175.73995836  .00003497  00000+0  18654-3 0  9991
2 47438  97.4370 234.6005 0010408 245.1763 114.8388 15.15772298 78385
DIY-1 (ARDUIQUBE)       
1 47963U 21022AH  22175.48624771  .00010442  00000+0  58123-3 0  9994
2 47963  97.5321  76.7640 0019082 105.7805 254.5532 15.13672552 68012
XW-3 (CAS-9)            
1 50466U 21131B   22175.82337027  .00000089  00000+0  43632-4 0  9996
2 50466  98.5805 253.0739 0005834 121.9044 238.2711 14.38503191 25970
TEVEL-3                 
1 50988U 22002E   22175.77498218  .00007048  00000+0  38564-3 0  9996
2 50988  97.4813 242.6348 0010470  47.5882  91.1914 15.14514091 24528
TEVEL-8                 
1 50989U 22002F   22175.83800098  .00007121  00000+0  39014-3 0  9990
2 50989  97.4824 242.7148 0010512  46.8454  46.1088 15.14463834 24535
TEVEL-5                 
1 50998U 22002Q   22175.79356507  .00007337  00000+0  39577-3 0  9999
2 50998  97.4803 242.7470 0012076  42.3713  96.8653 15.14991540 24536
TEVEL-6                 
1 50999U 22002R   22175.79332049  .00007349  00000+0  39641-3 0  9990
2 50999  97.4801 242.7454 0011972  42.0138  97.8646 15.14995996 24531
TEVEL-1                 
1 51013U 22002AF  22175.77838045  .00007025  00000+0  38469-3 0  9991
2 51013  97.4805 242.6224 0010343  47.0479  97.6296 15.14490183 24527
TEVEL-7                 
1 51062U 22002CG  22175.83924796  .00007110  00000+0  38966-3 0  9998
2 51062  97.4821 242.7066 0010548  46.1874  46.2332 15.14453651 24531
TEVEL-4                 
1 51063U 22002CH  22175.78207400  .00007122  00000+0  39043-3 0  9999
2 51063  97.4822 242.6481 0010498  46.4395  91.7248 15.14445211 24521
TEVEL-2                 
1 51069U 22002CP  22175.77613602  .00007014  00000+0  38388-3 0  9990
2 51069  97.4799 242.6247 0010391  47.6009  91.8167 15.14506272 24523
